CCSDS_OMM_VERS = 2.0
CREATION_DATE  = 
ORIGINATOR     = 

OBJECT_NAME    = COSMOS 1933
OBJECT_ID      = 1988-020A
CENTER_NAME    = EARTH
REF_FRAME      = TEME
TIME_SYSTEM    = UTC
MEAN_ELEMENT_THEORY = SGP/SGP4

EPOCH          = 2026-02-02T15:38:25.427616
MEAN_MOTION    = 15.17671243
ECCENTRICITY   = .00037043
INCLINATION    = 82.5132
RA_OF_ASC_NODE = 285.5749
ARG_OF_PERICENTER = 348.0931
MEAN_ANOMALY   = 12.0215

EPHEMERIS_TYPE = 0
CLASSIFICATION_TYPE = U
NORAD_CAT_ID   = 18958
ELEMENT_SET_NO = 999
REV_AT_EPOCH   = 4491
BSTAR          = .21318463E-3
MEAN_MOTION_DOT = .4323E-4
MEAN_MOTION_DDOT = 0

CCSDS_OMM_VERS = 2.0
CREATION_DATE  = 
ORIGINATOR     = 

OBJECT_NAME    = SL-3 R/B
OBJECT_ID      = 1988-032B
CENTER_NAME    = EARTH
REF_FRAME      = TEME
TIME_SYSTEM    = UTC
MEAN_ELEMENT_THEORY = SGP/SGP4

EPOCH          = 2026-02-02T13:42:25.699392
MEAN_MOTION    = 15.19434950
ECCENTRICITY   = .00262678
INCLINATION    = 97.5136
RA_OF_ASC_NODE = 16.9732
ARG_OF_PERICENTER = 0.8969
MEAN_ANOMALY   = 359.2308

EPHEMERIS_TYPE = 0
CLASSIFICATION_TYPE = U
NORAD_CAT_ID   = 19046
ELEMENT_SET_NO = 999
REV_AT_EPOCH   = 4677
BSTAR          = .33551393E-3
MEAN_MOTION_DOT = .7105E-4
MEAN_MOTION_DDOT = 0

CCSDS_OMM_VERS = 2.0
CREATION_DATE  = 
ORIGINATOR     = 

OBJECT_NAME    = SL-16 R/B
OBJECT_ID      = 1988-039B
CENTER_NAME    = EARTH
REF_FRAME      = TEME
TIME_SYSTEM    = UTC
MEAN_ELEMENT_THEORY = SGP/SGP4

EPOCH          = 2026-02-02T12:54:03.008448
MEAN_MOTION    = 14.19610934
ECCENTRICITY   = .00206378
INCLINATION    = 71.0151
RA_OF_ASC_NODE = 142.8785
ARG_OF_PERICENTER = 28.5297
MEAN_ANOMALY   = 331.6953

EPHEMERIS_TYPE = 0
CLASSIFICATION_TYPE = U
NORAD_CAT_ID   = 19120
ELEMENT_SET_NO = 999
REV_AT_EPOCH   = 95339
BSTAR          = .81604818E-4
MEAN_MOTION_DOT = .125E-5
MEAN_MOTION_DDOT = 0

CCSDS_OMM_VERS = 2.0
CREATION_DATE  = 
ORIGINATOR     = 

OBJECT_NAME    = COSMOS 1953
OBJECT_ID      = 1988-050A
CENTER_NAME    = EARTH
REF_FRAME      = TEME
TIME_SYSTEM    = UTC
MEAN_ELEMENT_THEORY = SGP/SGP4

EPOCH          = 2026-02-02T12:40:43.651200
MEAN_MOTION    = 15.27783597
ECCENTRICITY   = .00103663
INCLINATION    = 82.5078
RA_OF_ASC_NODE = 193.5842
ARG_OF_PERICENTER = 246.3598
MEAN_ANOMALY   = 113.6553

EPHEMERIS_TYPE = 0
CLASSIFICATION_TYPE = U
NORAD_CAT_ID   = 19210
ELEMENT_SET_NO = 999
REV_AT_EPOCH   = 3241
BSTAR          = .38657339E-3
MEAN_MOTION_DOT = .10538E-3
MEAN_MOTION_DDOT = 0

CCSDS_OMM_VERS = 2.0
CREATION_DATE  = 
ORIGINATOR     = 

OBJECT_NAME    = SL-8 R/B
OBJECT_ID      = 1988-053B
CENTER_NAME    = EARTH
REF_FRAME      = TEME
TIME_SYSTEM    = UTC
MEAN_ELEMENT_THEORY = SGP/SGP4

EPOCH          = 2026-02-02T13:08:51.005184
MEAN_MOTION    = 14.38893648
ECCENTRICITY   = .00200981
INCLINATION    = 74.0474
RA_OF_ASC_NODE = 177.2347
ARG_OF_PERICENTER = 3.4366
MEAN_ANOMALY   = 66.0720

EPHEMERIS_TYPE = 0
CLASSIFICATION_TYPE = U
NORAD_CAT_ID   = 19257
ELEMENT_SET_NO = 999
REV_AT_EPOCH   = 97154
BSTAR          = .86559464E-4
MEAN_MOTION_DOT = .241E-5
MEAN_MOTION_DDOT = 0

CCSDS_OMM_VERS = 2.0
CREATION_DATE  = 
ORIGINATOR     = 

OBJECT_NAME    = COSMOS 1975
OBJECT_ID      = 1988-093A
CENTER_NAME    = EARTH
REF_FRAME      = TEME
TIME_SYSTEM    = UTC
MEAN_ELEMENT_THEORY = SGP/SGP4

EPOCH          = 2026-02-02T10:07:10.818336
MEAN_MOTION    = 15.27425140
ECCENTRICITY   = .0010407
INCLINATION    = 82.5225
RA_OF_ASC_NODE = 153.0594
ARG_OF_PERICENTER = 297.3964
MEAN_ANOMALY   = 62.6216

EPHEMERIS_TYPE = 0
CLASSIFICATION_TYPE = U
NORAD_CAT_ID   = 19573
ELEMENT_SET_NO = 999
REV_AT_EPOCH   = 1402
BSTAR          = .36179599E-3
MEAN_MOTION_DOT = .9757E-4
MEAN_MOTION_DDOT = 0

CCSDS_OMM_VERS = 2.0
CREATION_DATE  = 
ORIGINATOR     = 

OBJECT_NAME    = SL-14 R/B
OBJECT_ID      = 1988-093B
CENTER_NAME    = EARTH
REF_FRAME      = TEME
TIME_SYSTEM    = UTC
MEAN_ELEMENT_THEORY = SGP/SGP4

EPOCH          = 2026-02-02T14:07:39.692640
MEAN_MOTION    = 14.85616884
ECCENTRICITY   = .00214735
INCLINATION    = 82.5285
RA_OF_ASC_NODE = 75.0042
ARG_OF_PERICENTER = 150.6069
MEAN_ANOMALY   = 2.9290

EPHEMERIS_TYPE = 0
CLASSIFICATION_TYPE = U
NORAD_CAT_ID   = 19574
ELEMENT_SET_NO = 999
REV_AT_EPOCH   = 99582
BSTAR          = .51593563E-4
MEAN_MOTION_DOT = .473E-5
MEAN_MOTION_DDOT = 0

CCSDS_OMM_VERS = 2.0
CREATION_DATE  = 
ORIGINATOR     = 

OBJECT_NAME    = SL-16 R/B
OBJECT_ID      = 1988-102B
CENTER_NAME    = EARTH
REF_FRAME      = TEME
TIME_SYSTEM    = UTC
MEAN_ELEMENT_THEORY = SGP/SGP4

EPOCH          = 2026-02-02T12:24:08.615232
MEAN_MOTION    = 14.16146001
ECCENTRICITY   = .00121742
INCLINATION    = 70.9971
RA_OF_ASC_NODE = 225.5007
ARG_OF_PERICENTER = 59.9348
MEAN_ANOMALY   = 300.2981

EPHEMERIS_TYPE = 0
CLASSIFICATION_TYPE = U
NORAD_CAT_ID   = 19650
ELEMENT_SET_NO = 999
REV_AT_EPOCH   = 92191
BSTAR          = -.63427439E-4
MEAN_MOTION_DOT = -.173E-5
MEAN_MOTION_DDOT = 0

CCSDS_OMM_VERS = 2.0
CREATION_DATE  = 
ORIGINATOR     = 

OBJECT_NAME    = INTERCOSMOS 24
OBJECT_ID      = 1989-080A
CENTER_NAME    = EARTH
REF_FRAME      = TEME
TIME_SYSTEM    = UTC
MEAN_ELEMENT_THEORY = SGP/SGP4

EPOCH          = 2026-02-02T09:04:02.472096
MEAN_MOTION    = 12.59509500
ECCENTRICITY   = .11884052
INCLINATION    = 82.6073
RA_OF_ASC_NODE = 127.3850
ARG_OF_PERICENTER = 14.8039
MEAN_ANOMALY   = 348.4876

EPHEMERIS_TYPE = 0
CLASSIFICATION_TYPE = U
NORAD_CAT_ID   = 20261
ELEMENT_SET_NO = 999
REV_AT_EPOCH   = 66235
BSTAR          = .14177723E-3
MEAN_MOTION_DOT = .499E-5
MEAN_MOTION_DDOT = 0

CCSDS_OMM_VERS = 2.0
CREATION_DATE  = 
ORIGINATOR     = 

OBJECT_NAME    = SL-14 R/B
OBJECT_ID      = 1989-080C
CENTER_NAME    = EARTH
REF_FRAME      = TEME
TIME_SYSTEM    = UTC
MEAN_ELEMENT_THEORY = SGP/SGP4

EPOCH          = 2026-02-02T10:16:51.365856
MEAN_MOTION    = 12.50452284
ECCENTRICITY   = .12294126
INCLINATION    = 82.5935
RA_OF_ASC_NODE = 195.8241
ARG_OF_PERICENTER = 265.3953
MEAN_ANOMALY   = 80.6041

EPHEMERIS_TYPE = 0
CLASSIFICATION_TYPE = U
NORAD_CAT_ID   = 20262
ELEMENT_SET_NO = 999
REV_AT_EPOCH   = 65574
BSTAR          = .9698602E-4
MEAN_MOTION_DOT = .32E-5
MEAN_MOTION_DDOT = 0

CCSDS_OMM_VERS = 2.0
CREATION_DATE  = 
ORIGINATOR     = 

OBJECT_NAME    = DELTA 1 R/B
OBJECT_ID      = 1989-089B
CENTER_NAME    = EARTH
REF_FRAME      = TEME
TIME_SYSTEM    = UTC
MEAN_ELEMENT_THEORY = SGP/SGP4

EPOCH          = 2026-02-02T12:16:39.215136
MEAN_MOTION    = 14.50631431
ECCENTRICITY   = .00678334
INCLINATION    = 97.0729
RA_OF_ASC_NODE = 246.5392
ARG_OF_PERICENTER = 233.2102
MEAN_ANOMALY   = 126.2859

EPHEMERIS_TYPE = 0
CLASSIFICATION_TYPE = U
NORAD_CAT_ID   = 20323
ELEMENT_SET_NO = 999
REV_AT_EPOCH   = 89063
BSTAR          = .11292877E-3
MEAN_MOTION_DOT = .42E-5
MEAN_MOTION_DDOT = 0

CCSDS_OMM_VERS = 2.0
CREATION_DATE  = 
ORIGINATOR     = 

OBJECT_NAME    = ARIANE 40 R/B
OBJECT_ID      = 1990-005H
CENTER_NAME    = EARTH
REF_FRAME      = TEME
TIME_SYSTEM    = UTC
MEAN_ELEMENT_THEORY = SGP/SGP4

EPOCH          = 2026-02-02T03:56:36.981024
MEAN_MOTION    = 14.39845229
ECCENTRICITY   = .00091873
INCLINATION    = 98.3158
RA_OF_ASC_NODE = 94.8704
ARG_OF_PERICENTER = 316.3734
MEAN_ANOMALY   = 43.6727

EPHEMERIS_TYPE = 0
CLASSIFICATION_TYPE = U
NORAD_CAT_ID   = 20443
ELEMENT_SET_NO = 999
REV_AT_EPOCH   = 88769
BSTAR          = .10484161E-3
MEAN_MOTION_DOT = .287E-5
MEAN_MOTION_DDOT = 0

